[{"OBJECT_NAME":"YAOGAN-30 11C","OBJECT_ID":"2021-065D","EPOCH":"2026-03-09T22:23:40.743744","MEAN_MOTION":15.02147773,"ECCENTRICITY":0.00031824,"INCLINATION":34.9942,"RA_OF_ASC_NODE":157.3601,"ARG_OF_PERICENTER":128.8602,"MEAN_ANOMALY":231.239,"EPHEMERIS_TYPE":0,"CLASSIFICATION_TYPE":"U","NORAD_CAT_ID":49029,"ELEMENT_SET_NO":999,"REV_AT_EPOCH":25372,"BSTAR":0.00028936186,"MEAN_MOTION_DOT":3.857e-5,"MEAN_MOTION_DDOT":0},{"OBJECT_NAME":"STARLINK-6175","OBJECT_ID":"2023-083G","EPOCH":"2026-03-09T01:22:02.858592","MEAN_MOTION":15.02529146,"ECCENTRICITY":0.00013234,"INCLINATION":43.0041,"RA_OF_ASC_NODE":85.3496,"ARG_OF_PERICENTER":265.3763,"MEAN_ANOMALY":94.6929,"EPHEMERIS_TYPE":0,"CLASSIFICATION_TYPE":"U","NORAD_CAT_ID":56882,"ELEMENT_SET_NO":999,"REV_AT_EPOCH":15157,"BSTAR":-6.0965703e-5,"MEAN_MOTION_DOT":-1.027e-5,"MEAN_MOTION_DDOT":0}]
